satname,norad_id,inclination_deg,eccentricity,mean_motion_rev_per_day,perigee_km,apogee_km,l1,l2
STARLINK-1331,45578,53.0547,0.0001585,15.06393321,546.1343571959915,548.3296991779262,1 45578U 20025AZ  25315.09051068  .00000994  00000+0  85634-4 0  9994,2 45578  53.0547 249.0303 0001585  91.4121 268.7049 15.06393321307642
STARLINK-1333,45580,53.0535,0.0001159,15.06428202,546.322486338383,547.9277620987768,1 45580U 20025BB  25315.22963887  .00014723  00000+0  10045-2 0  9990,2 45580  53.0535 258.4038 0001159  99.1260 260.9860 15.06428202307515
STARLINK-1335,45581,53.0545,0.0001567,15.06402681,546.1181402401535,548.2885419030454,1 45581U 20025BC  25315.23425294  .00007698  00000+0  53507-3 0  9991,2 45581  53.0545 248.3865 0001567  94.8193 265.2975 15.06402681307656
STARLINK-1337,45582,53.0542,0.0001403,15.06400553,546.2382369085535,548.1814892383318,1 45582U 20025BD  25315.19002685  .00004528  00000+0  32267-3 0  9991,2 45582  53.0542 248.5866 0001403  83.0503 277.0645 15.06400553307641
STARLINK-1347,45586,53.0528,0.0008797,15.33392316,459.6794061369028,471.72045283063653,1 45586U 20025BH  25315.14950058  .00059253  00000+0  18057-2 0  9991,2 45586  53.0528 232.3307 0008797  54.3759 305.8060 15.33392316307869
STARLINK-1360,45588,53.0411,0.0004247,15.77728265,334.02690895862725,339.7306433588965,1 45588U 20025BK  25314.97794844  .00128170  00000+0  74134-3 0  9996,2 45588  53.0411 148.4131 0004247 164.7704 195.3444 15.77728265309039
STARLINK-1364,45589,53.0548,0.0001714,15.06398722,546.028469412795,548.402480241165,1 45589U 20025BL  25315.19371278  .00004676  00000+0  33261-3 0  9994,2 45589  53.0548 248.5716 0001714  95.6903 264.4281 15.06398722307646
STARLINK-1365,45590,53.0556,0.0001522,15.06366382,546.2605404499627,548.3686479152329,1 45590U 20025BM  25315.27573119  .00005759  00000+0  40558-3 0  9993,2 45590  53.0556 278.1986 0001522  90.2482 269.8681 15.06366382307252
STARLINK-1443,45660,53.0539,0.0001667,15.06407962,546.0327041257488,548.3416071992469,1 45660U 20035D   25315.19463961  .00005842  00000+0  41068-3 0  9996,2 45660  53.0539 238.5653 0001667  92.7263 267.3916 15.06407962300871
STARLINK-1446,45663,53.026,0.0002217,15.34531421,460.79612948804424,463.8291848660356,1 45663U 20035G   25315.07383888  .00049533  00000+0  14612-2 0  9994,2 45663  53.0260 199.9213 0002217  84.7970 275.3284 15.34531421301401
STARLINK-1448,45665,53.0536,0.0001579,15.06397686,546.1251363669398,548.3121636812175,1 45665U 20035J   25315.19832754  .00002249  00000+0  16984-3 0  9998,2 45665  53.0536 238.5491 0001579  65.4717 294.6437 15.06397686300867
STARLINK-1451,45668,53.0537,0.0001863,15.06436803,545.808592917374,548.388935763167,1 45668U 20035M   25315.20203206  .00021183  00000+0  14353-2 0  9992,2 45668  53.0537 238.8469 0001863  92.4060 267.7143 15.06436803300877
STARLINK-1452,45669,53.0363,0.0011906,15.27614934,474.775689444019,491.1132966953164,1 45669U 20035N   25315.16228097  .00050434  00000+0  18401-2 0  9992,2 45669  53.0363 218.4251 0011906  59.4825 300.7347 15.27614934301151
STARLINK-1453,45670,53.0516,0.0001715,15.06429826,545.9324654515303,548.3078286529699,1 45670U 20035P   25315.14578814  .00011259  00000+0  77292-3 0  9993,2 45670  53.0516 208.7841 0001715  90.5318 269.5868 15.06429826301173
STARLINK-1454,45671,53.0543,0.0001161,15.06392531,546.4304138168482,548.0384850674081,1 45671U 20035Q   25315.15777658  .00002152  00000+0  16334-3 0  9994,2 45671  53.0543 238.7316 0001161  78.5259 281.5861 15.06392531300852
STARLINK-1456,45673,53.0541,0.0001381,15.06405076,546.2396122856335,548.1523892604473,1 45673U 20035S   25315.23886342  .00005206  00000+0  36807-3 0  9996,2 45673  53.0541 238.3684 0001381  93.1712 266.9435 15.06405076300883
STARLINK-1457,45674,53.052,9.39e-05,15.29116351,477.80872691103286,479.09639443052583,1 45674U 20035T   25315.33336806  .01785230  00000+0  55963-1 0  9998,2 45674  53.0520 237.0200 0000939 109.1676 118.9600 15.29116351  5709
STARLINK-1458,45675,53.0546,0.0001962,15.06383449,545.9035214942642,548.6210481736334,1 45675U 20035U   25315.16882806 -.00005215  00000+0 -33160-3 0  9992,2 45675  53.0546 238.6835 0001962  95.9596 264.1617 15.06383449300832
STARLINK-1460,45676,53.0543,0.0001476,15.06399752,546.1901364633231,548.234499582004,1 45676U 20035V   25315.20569483  .00003814  00000+0  27477-3 0  9996,2 45676  53.0543 238.5118 0001476 105.1019 255.0133 15.06399752300833
STARLINK-1392,45677,53.0539,0.0001418,15.0640221,546.2227711497981,548.1867980799143,1 45677U 20035W   25315.08405995  .00006398  00000+0  44798-3 0  9995,2 45677  53.0539 239.0630 0001418  79.1160 280.9988 15.06402210300858
STARLINK-1394,45679,53.0527,0.0001241,15.0640937,546.3234081944684,548.042272578853,1 45679U 20035Y   25315.28033644  .00021405  00000+0  14512-2 0  9993,2 45679  53.0527 228.1802 0001241  90.4062 269.7069 15.06409370301027
STARLINK-1402,45685,53.0546,0.0003593,15.27862161,479.73941388663206,484.6692551696242,1 45685U 20035AE  25315.26897482  .00055496  00000+0  20105-2 0  9998,2 45685  53.0546 219.4095 0003593 118.8437 241.2922 15.27862161301156
STARLINK-1404,45686,53.054,0.000146,15.06401614,546.1955110979088,548.2177114323986,1 45686U 20035AF  25315.17344530  .00008271  00000+0  57348-3 0  9999,2 45686  53.0540 228.6618 0001460  77.5435 282.5718 15.06401614301019
STARLINK-1413,45689,53.0543,0.000157,15.0638929,546.1570978631435,548.3316676173226,1 45689U 20035AJ  25315.19187407  .00000383  00000+0  44599-4 0  9993,2 45689  53.0543 228.5736 0001570  91.2543 268.8626 15.06389290300929
STARLINK-1417,45693,53.0537,0.0001427,15.06403258,546.2133268411944,548.1898184698312,1 45693U 20035AN  25315.05549273  .00001417  00000+0  11398-3 0  9995,2 45693  53.0537 229.1861 0001427  94.5979 265.5173 15.06403258300981
STARLINK-1420,45695,53.0523,0.0001398,15.06406805,546.2225408591967,548.1588624845836,1 45695U 20035AQ  25315.12274815  .00006156  00000+0  43169-3 0  9998,2 45695  53.0523 208.8750 0001398  90.7293 269.3856 15.06406805301288
STARLINK-1422,45696,53.0558,0.0001903,15.06395244,545.908237827156,548.5440310361219,1 45696U 20035AR  25315.06655285  .00003319  00000+0  24165-3 0  9999,2 45696  53.0558 229.1454 0001903  94.5494 265.5713 15.06395244300981
STARLINK-1351,45697,53.0528,0.0001714,15.06427372,545.9406776067435,548.3146583349244,1 45697U 20035AS  25315.10891945  .00013421  00000+0  91749-3 0  9997,2 45697  53.0528 208.9498 0001714  79.8401 280.2781 15.06427372301287
STARLINK-1398,45699,53.0475,0.0005606,15.53751518,401.981176118069,409.58730861501044,1 45699U 20035AU  25315.00781316  .00134653  00000+0  20363-2 0  9992,2 45699  53.0475 165.6298 0005606 136.3988 223.7465 15.53751518301881
STARLINK-1400,45700,53.0535,7.76e-05,15.06398185,546.6797131776921,547.7545281372177,1 45700U 20035AV  25315.14947966  .00016524  00000+0  11257-2 0  9993,2 45700  53.0535 208.7686 0000776  83.0278 277.0799 15.06398185301285
STARLINK-1403,45701,53.052,0.0001598,15.06410357,546.0731497797242,548.2864810339288,1 45701U 20035AW  25315.11263658  .00010251  00000+0  70586-3 0  9992,2 45701  53.0520 208.9338 0001598  84.2956 275.8216 15.06410357301270
STARLINK-1407,45703,53.0386,0.0012481,15.42846523,429.2061344881049,446.2198592502891,1 45703U 20035AY  25314.92349445  .00107473  00000+0  23831-2 0  9994,2 45703  53.0386 165.7669 0012481  94.7109 265.5322 15.42846523301876
STARLINK-1411,45706,53.0515,0.0002546,15.42342476,437.46219697967445,440.93358390588855,1 45706U 20035BB  25315.06465825  .00059620  00000+0  13604-2 0  9991,2 45706  53.0515 192.2743 0002546 143.7242 216.3936 15.42342476301508
STARLINK-1423,45710,53.053,0.0001397,15.06394907,546.2596939195591,548.1946406679008,1 45710U 20035BF  25315.13842616  .00002143  00000+0  16277-3 0  9999,2 45710  53.0530 208.8184 0001397  83.9559 276.1589 15.06394907301281
STARLINK-1433,45711,53.0528,0.0001592,15.06408923,546.0816992267264,548.2867215001052,1 45711U 20035BG  25315.12000314  .00006760  00000+0  47220-3 0  9991,2 45711  53.0528 208.8995 0001592  83.8990 276.2180 15.06408923301275
STARLINK-1434,45712,53.0485,0.0006807,15.16117085,512.895347179131,522.2831889204544,1 45712U 20035BH  25315.01762239  .00049331  00000+0  25269-2 0  9990,2 45712  53.0485 204.8273 0006807  95.8388 264.3381 15.16117085301336
STARLINK-1465,45731,53.0556,0.0001407,15.06410283,546.2056500957397,548.1544343114156,1 45731U 20038B   25314.62239137  .00002160  00000+0  16382-3 0  9992,2 45731  53.0556  51.1309 0001407  76.2329 283.8816 15.06410283298247
STARLINK-1471,45735,53.052,7.7e-05,15.41428275,441.3679966682812,442.4182813096859,1 45735U 20038F   25315.25392589  .00027258  00000+0  64913-3 0  9995,2 45735  53.0520 345.9387 0000770  87.8073 272.3019 15.41428275299224
STARLINK-1474,45738,53.0374,0.0004443,15.68688844,359.6555611929116,365.6454249592589,1 45738U 20038J   25315.23674104  .00100109  00000+0  85608-3 0  9993,2 45738  53.0374 301.2637 0004443  25.9526 334.1712 15.68688844299848
STARLINK-1475,45739,53.047,0.0007317,15.83955427,314.3671255081799,324.1681074239159,1 45739U 20038K   25315.33336806  .00354021  00000+0  14917-2 0  9997,2 45739  53.0470 266.3540 0007317  66.4205 229.9989 15.83955427  5985
STARLINK-1480,45741,53.0543,9.01e-05,15.06405782,546.5698646893061,547.8178093061333,1 45741U 20038M   25315.26742509  .00004081  00000+0  29262-3 0  9991,2 45741  53.0543  48.2345 0000901  77.0854 283.0235 15.06405782298358
STARLINK-1500,45744,53.0392,0.0001474,15.28109005,480.4544163372475,482.4766271606586,1 45744U 20038Q   25315.22703371  .00028551  00000+0  10366-2 0  9996,2 45744  53.0392  25.5863 0001474 238.6291 121.4563 15.28109005298668
STARLINK-1504,45746,53.028,0.0001685,15.41219866,441.35866493107824,443.65722227707374,1 45746U 20038S   25315.27356275  .00060571  00000+0  14344-2 0  9998,2 45746  53.0280 348.9622 0001685 304.0724  56.0120 15.41219866299175
